ONEWEB-0687             
1 61595U 24188B   26027.97666632  .00000067  00000+0  14014-3 0  9996
2 61595  87.9077  33.7507 0002424  92.0673 268.0736 13.17650835 67431
ONEWEB-0688             
1 61596U 24188C   26028.00535480  .00000051  00000+0  97134-4 0  9996
2 61596  87.9074  33.7448 0002911  72.6956 287.4494 13.17647585 67436
ONEWEB-0689             
1 61597U 24188D   26027.49953697  .00000526  00000+0  14495-2 0  9997
2 61597  87.8819  49.0317 0002060  99.9158 260.2203 13.11416277 66015
ONEWEB-0690             
1 61598U 24188E   26027.81490472  .00000583  00000+0  16086-2 0  9992
2 61598  87.8826  48.9890 0001289  75.4949 284.6322 13.11416091 66237
ONEWEB-0691             
1 61599U 24188F   26027.80982087  .00000572  00000+0  15789-2 0  9997
2 61599  87.8831  48.8883 0002211  86.7740 273.3641 13.11416766 66086
ONEWEB-0692             
1 61600U 24188G   26027.52496299  .00000003  00000+0 -26883-4 0  9993
2 61600  87.8807  49.0854 0001678 123.4048 236.7241 13.11413866 66031
ONEWEB-0693             
1 61601U 24188H   26027.71341353  .00000050  00000+0  96113-4 0  9999
2 61601  87.9077  33.8245 0001479  61.0792 299.0488 13.17646883 67386
ONEWEB-0695             
1 61602U 24188J   26027.80641334  .00001575  00000+0  44076-2 0  9994
2 61602  87.8816  49.0191 0002117 107.3074 252.8286 13.11427214 66069
